{"type": "FeatureCollection", "features": [ {"type": "Feature", "properties": {"norad_id": 38779, "name": "GSAT-10 (GAGAN/PRN 128)", "group": "gnss", "lat": 0.047452904383632324, "lon": 64.42868144710415, "alt_km": 35780.643699387976, "timestamp": "2025-12-20T16:47:36.528474+00:00", "meta": {"OBJECT_NAME": "GSAT-10 (GAGAN/PRN 128)", "OBJECT_ID": "2012-051B", "EPOCH": "2025-12-20T10:12:03.519072", "MEAN_MOTION": 1.00272233, "ECCENTRICITY": 0.0002425, "INCLINATION": 0.0732, "RA_OF_ASC_NODE": 264.6436, "ARG_OF_PERICENTER": 218.7757, "MEAN_ANOMALY": 201.8839, "EPHEMERIS_TYPE": 0, "CLASSIFICATION_TYPE": "U", "NORAD_CAT_ID": 38779, "ELEMENT_SET_NO": 999, "REV_AT_EPOCH": 4830, "BSTAR": 0, "MEAN_MOTION_DOT": -1.41e-06, "MEAN_MOTION_DDOT": 0}, "tle": {"line1": "1 38779U 12051B   25354.42504073 -.00000141  00000+0  00000+0 0  9992", "line2": "2 38779   0.0732 264.6436 0002425 218.7757 201.8839  1.00272233 48305"}}, "geometry": {"type": "Point", "coordinates": [64.42868144710415, 0.047452904383632324]}}, {"type": "Feature", "properties": {"norad_id": 38833, "name": "GPS BIIF-3  (PRN 24)", "group": "gnss", "lat": -53.49622923165617, "lon": 57.815653807626944, "alt_km": 20613.072304232785, "timestamp": "2025-12-20T16:47:36.528486+00:00", "meta": {"OBJECT_NAME": "GPS BIIF-3  (PRN 24)", "OBJECT_ID": "2012-053A", "EPOCH": "2025-12-19T19:56:51.792864", "MEAN_MOTION": 2.0056508, "ECCENTRICITY": 0.0176007, "INCLINATION": 53.5591, "RA_OF_ASC_NODE": 150.9482, "ARG_OF_PERICENTER": 64.0988, "MEAN_ANOMALY": 297.6852, "EPHEMERIS_TYPE": 0, "CLASSIFICATION_TYPE": "U", "NORAD_CAT_ID": 38833, "ELEMENT_SET_NO": 999, "REV_AT_EPOCH": 9584, "BSTAR": 0, "MEAN_MOTION_DOT": 5.6e-07, "MEAN_MOTION_DDOT": 0}, "tle": {"line1": "1 38833U 12053A   25353.83115501  .00000056  00000+0  00000+0 0  9997", "line2": "2 38833  53.5591 150.9482 0176007  64.0988 297.6852  2.00565080 95841"}}, "geometry": {"type": "Point", "coordinates": [57.815653807626944, -53.49622923165617]}}, {"type": "Feature", "properties": {"norad_id": 38857, "name": "GSAT0103 (GALILEO-FM3)", "group": "gnss", "lat": 54.84116851076742, "lon": -178.11842389240866, "alt_km": 23224.28823506862, "timestamp": "2025-12-20T16:47:36.528497+00:00", "meta": {"OBJECT_NAME": "GSAT0103 (GALILEO-FM3)", "OBJECT_ID": "2012-055A", "EPOCH": "2025-12-18T05:17:11.481792", "MEAN_MOTION": 1.70473412, "ECCENTRICITY": 0.00028558, "INCLINATION": 55.6954, "RA_OF_ASC_NODE": 106.5161, "ARG_OF_PERICENTER": 269.0808, "MEAN_ANOMALY": 90.8455, "EPHEMERIS_TYPE": 0, "CLASSIFICATION_TYPE": "U", "NORAD_CAT_ID": 38857, "ELEMENT_SET_NO": 999, "REV_AT_EPOCH": 8192, "BSTAR": 0, "MEAN_MOTION_DOT": -7e-08, "MEAN_MOTION_DDOT": 0}, "tle": {"line1": "1 38857U 12055A   25352.22027178 -.00000007  00000+0  00000+0 0  9996", "line2": "2 38857  55.6954 106.5161 0002855 269.0808  90.8455  1.70473412 81920"}}, "geometry": {"type": "Point", "coordinates": [-178.11842389240866, 54.84116851076742]}}, {"type": "Feature", "properties": {"norad_id": 38953, "name": "BEIDOU-2 G6 (C02)", "group": "gnss", "lat": -0.6641027686646097, "lon": 65.47277362870372, "alt_km": 35768.432880169785, "timestamp": "2025-12-20T16:47:36.528512+00:00", "meta": {"OBJECT_NAME": "BEIDOU-2 G6 (C02)", "OBJECT_ID": "2012-059A", "EPOCH": "2025-12-20T08:29:35.831616", "MEAN_MOTION": 1.0026897, "ECCENTRICITY": 0.0008257, "INCLINATION": 3.9675, "RA_OF_ASC_NODE": 75.4322, "ARG_OF_PERICENTER": 292.2593, "MEAN_ANOMALY": 292.8441, "EPHEMERIS_TYPE": 0, "CLASSIFICATION_TYPE": "U", "NORAD_CAT_ID": 38953, "ELEMENT_SET_NO": 999, "REV_AT_EPOCH": 4811, "BSTAR": 0, "MEAN_MOTION_DOT": -1.54e-06, "MEAN_MOTION_DDOT": 0}, "tle": {"line1": "1 38953U 12059A   25354.35388694 -.00000154  00000+0  00000+0 0  9999", "line2": "2 38953   3.9675  75.4322 0008257 292.2593 292.8441  1.00268970 48114"}}, "geometry": {"type": "Point", "coordinates": [65.47277362870372, -0.6641027686646097]}}, {"type": "Feature", "properties": {"norad_id": 38977, "name": "LUCH 5B (SDCM/PRN 125)", "group": "gnss", "lat": -10.095938432448351, "lon": -34.766093944645526, "alt_km": 35781.37756247235, "timestamp": "2025-12-20T16:47:36.528526+00:00", "meta": {"OBJECT_NAME": "LUCH 5B (SDCM/PRN 125)", "OBJECT_ID": "2012-061A", "EPOCH": "2025-12-20T10:31:38.598816", "MEAN_MOTION": 1.00272375, "ECCENTRICITY": 0.0006597, "INCLINATION": 10.0969, "RA_OF_ASC_NODE": 51.6321, "ARG_OF_PERICENTER": 195.4287, "MEAN_ANOMALY": 343.7948, "EPHEMERIS_TYPE": 0, "CLASSIFICATION_TYPE": "U", "NORAD_CAT_ID": 38977, "ELEMENT_SET_NO": 999, "REV_AT_EPOCH": 4781, "BSTAR": 0, "MEAN_MOTION_DOT": -1.21e-06, "MEAN_MOTION_DDOT": 0}, "tle": {"line1": "1 38977U 12061A   25354.43864119 -.00000121  00000+0  00000+0 0  9992", "line2": "2 38977  10.0969  51.6321 0006597 195.4287 343.7948  1.00272375 47817"}}, "geometry": {"type": "Point", "coordinates": [-34.766093944645526, -10.095938432448351]}}, {"type": "Feature", "properties": {"norad_id": 39155, "name": "COSMOS 2485 (747)", "group": "gnss", "lat": 64.31224312033636, "lon": 152.23248459610417, "alt_km": 19176.226921760965, "timestamp": "2025-12-20T16:47:36.528538+00:00", "meta": {"OBJECT_NAME": "COSMOS 2485 (747)", "OBJECT_ID": "2013-019A", "EPOCH": "2025-12-20T02:56:15.294336", "MEAN_MOTION": 2.13103192, "ECCENTRICITY": 0.00247921, "INCLINATION": 65.3175, "RA_OF_ASC_NODE": 79.6189, "ARG_OF_PERICENTER": 230.0872, "MEAN_ANOMALY": 129.7256, "EPHEMERIS_TYPE": 0, "CLASSIFICATION_TYPE": "U", "NORAD_CAT_ID": 39155, "ELEMENT_SET_NO": 999, "REV_AT_EPOCH": 9846, "BSTAR": 0, "MEAN_MOTION_DOT": -2e-07, "MEAN_MOTION_DDOT": 0}, "tle": {"line1": "1 39155U 13019A   25354.12239924 -.00000020  00000+0  00000+0 0  9999", "line2": "2 39155  65.3175  79.6189 0024792 230.0872 129.7256  2.13103192 98469"}}, "geometry": {"type": "Point", "coordinates": [152.23248459610417, 64.31224312033636]}}, {"type": "Feature", "properties": {"norad_id": 39166, "name": "GPS BIIF-4  (PRN 27)", "group": "gnss", "lat": 4.389540762177995, "lon": -80.64712151670486, "alt_km": 19912.261204223647, "timestamp": "2025-12-20T16:47:36.528549+00:00", "meta": {"OBJECT_NAME": "GPS BIIF-4  (PRN 27)", "OBJECT_ID": "2013-023A", "EPOCH": "2025-12-19T04:43:12.887616", "MEAN_MOTION": 2.00564719, "ECCENTRICITY": 0.0138305, "INCLINATION": 54.6464, "RA_OF_ASC_NODE": 276.3057, "ARG_OF_PERICENTER": 48.6894, "MEAN_ANOMALY": 312.5202, "EPHEMERIS_TYPE": 0, "CLASSIFICATION_TYPE": "U", "NORAD_CAT_ID": 39166, "ELEMENT_SET_NO": 999, "REV_AT_EPOCH": 9227, "BSTAR": 0, "MEAN_MOTION_DOT": -2.9e-07, "MEAN_MOTION_DDOT": 0}, "tle": {"line1": "1 39166U 13023A   25353.19667694 -.00000029  00000+0  00000+0 0  9990", "line2": "2 39166  54.6464 276.3057 0138305  48.6894 312.5202  2.00564719 92274"}}, "geometry": {"type": "Point", "coordinates": [-80.64712151670486, 4.389540762177995]}}, {"type": "Feature", "properties": {"norad_id": 39199, "name": "IRNSS-1A", "group": "gnss", "lat": -16.785757431415714, "lon": 41.297421881460245, "alt_km": 35838.30283287133, "timestamp": "2025-12-20T16:47:36.528563+00:00", "meta": {"OBJECT_NAME": "IRNSS-1A", "OBJECT_ID": "2013-034A", "EPOCH": "2025-12-18T18:41:43.776960", "MEAN_MOTION": 1.00272479, "ECCENTRICITY": 0.0024472, "INCLINATION": 35.3183, "RA_OF_ASC_NODE": 66.4661, "ARG_OF_PERICENTER": 211.0525, "MEAN_ANOMALY": 145.3931, "EPHEMERIS_TYPE": 0, "CLASSIFICATION_TYPE": "U", "NORAD_CAT_ID": 39199, "ELEMENT_SET_NO": 999, "REV_AT_EPOCH": 4555, "BSTAR": 0, "MEAN_MOTION_DOT": 6.5e-07, "MEAN_MOTION_DDOT": 0}, "tle": {"line1": "1 39199U 13034A   25352.77897890  .00000065  00000+0  00000+0 0  9993", "line2": "2 39199  35.3183  66.4661 0024472 211.0525 145.3931  1.00272479 45557"}}, "geometry": {"type": "Point", "coordinates": [41.297421881460245, -16.785757431415714]}}, {"type": "Feature", "properties": {"norad_id": 39533, "name": "GPS BIIF-5  (PRN 30)", "group": "gnss", "lat": 7.752550057620528, "lon": 162.34787346960957, "alt_km": 20351.292776273698, "timestamp": "2025-12-20T16:47:36.528574+00:00", "meta": {"OBJECT_NAME": "GPS BIIF-5  (PRN 30)", "OBJECT_ID": "2014-008A", "EPOCH": "2025-12-20T04:30:10.868256", "MEAN_MOTION": 2.00559606, "ECCENTRICITY": 0.0079998, "INCLINATION": 53.6333, "RA_OF_ASC_NODE": 156.6204, "ARG_OF_PERICENTER": 226.3975, "MEAN_ANOMALY": 132.9264, "EPHEMERIS_TYPE": 0, "CLASSIFICATION_TYPE": "U", "NORAD_CAT_ID": 39533, "ELEMENT_SET_NO": 999, "REV_AT_EPOCH": 8609, "BSTAR": 0, "MEAN_MOTION_DOT": 6.4e-07, "MEAN_MOTION_DDOT": 0}, "tle": {"line1": "1 39533U 14008A   25354.18762579  .00000064  00000+0  00000+0 0  9998", "line2": "2 39533  53.6333 156.6204 0079998 226.3975 132.9264  2.00559606 86091"}}, "geometry": {"type": "Point", "coordinates": [162.34787346960957, 7.752550057620528]}}, {"type": "Feature", "properties": {"norad_id": 39617, "name": "ASTRA 5B (EGNOS/PRN 123)", "group": "gnss", "lat": 0.008861336033877149, "lon": 4.965976783017879, "alt_km": 35790.36328077427, "timestamp": "2025-12-20T16:47:36.528586+00:00", "meta": {"OBJECT_NAME": "ASTRA 5B (EGNOS/PRN 123)", "OBJECT_ID": "2014-011B", "EPOCH": "2025-12-19T19:52:38.507808", "MEAN_MOTION": 1.00270681, "ECCENTRICITY": 0.0003845, "INCLINATION": 0.0429, "RA_OF_ASC_NODE": 358.0682, "ARG_OF_PERICENTER": 262.2755, "MEAN_ANOMALY": 149.9909, "EPHEMERIS_TYPE": 0, "CLASSIFICATION_TYPE": "U", "NORAD_CAT_ID": 39617, "ELEMENT_SET_NO": 999, "REV_AT_EPOCH": 4286, "BSTAR": 0, "MEAN_MOTION_DOT": 1.61e-06, "MEAN_MOTION_DDOT": 0}, "tle": {"line1": "1 39617U 14011B   25353.82822347  .00000161  00000+0  00000+0 0  9993", "line2": "2 39617   0.0429 358.0682 0003845 262.2755 149.9909  1.00270681 42860"}}, "geometry": {"type": "Point", "coordinates": [4.965976783017879, 0.008861336033877149]}}]}